CCSDS_OMM_VERS = 2.0
CREATION_DATE  = 
ORIGINATOR     = 

OBJECT_NAME    = ATLAS CENTAUR R/B
OBJECT_ID      = 1972-065B
CENTER_NAME    = EARTH
REF_FRAME      = TEME
TIME_SYSTEM    = UTC
MEAN_ELEMENT_THEORY = SGP/SGP4

EPOCH          = 2026-03-04T03:40:15.783744
MEAN_MOTION    = 14.77669938
ECCENTRICITY   = .0034145
INCLINATION    = 35.0028
RA_OF_ASC_NODE = 338.2004
ARG_OF_PERICENTER = 322.4837
MEAN_ANOMALY   = 37.3482

EPHEMERIS_TYPE = 0
CLASSIFICATION_TYPE = U
NORAD_CAT_ID   = 6155
ELEMENT_SET_NO = 999
REV_AT_EPOCH   = 84044
BSTAR          = .26533E-3
MEAN_MOTION_DOT = .1926E-4
MEAN_MOTION_DDOT = 0

CCSDS_OMM_VERS = 2.0
CREATION_DATE  = 
ORIGINATOR     = 

OBJECT_NAME    = SL-8 R/B
OBJECT_ID      = 1975-112B
CENTER_NAME    = EARTH
REF_FRAME      = TEME
TIME_SYSTEM    = UTC
MEAN_ELEMENT_THEORY = SGP/SGP4

EPOCH          = 2026-03-04T08:32:11.527008
MEAN_MOTION    = 14.38200081
ECCENTRICITY   = .0014549
INCLINATION    = 74.0617
RA_OF_ASC_NODE = 28.7234
ARG_OF_PERICENTER = 124.1794
MEAN_ANOMALY   = 236.0742

EPHEMERIS_TYPE = 0
CLASSIFICATION_TYPE = U
NORAD_CAT_ID   = 8459
ELEMENT_SET_NO = 999
REV_AT_EPOCH   = 63110
BSTAR          = .11977E-3
MEAN_MOTION_DOT = .338E-5
MEAN_MOTION_DDOT = 0

CCSDS_OMM_VERS = 2.0
CREATION_DATE  = 
ORIGINATOR     = 

OBJECT_NAME    = SL-3 R/B
OBJECT_ID      = 1977-057B
CENTER_NAME    = EARTH
REF_FRAME      = TEME
TIME_SYSTEM    = UTC
MEAN_ELEMENT_THEORY = SGP/SGP4

EPOCH          = 2026-03-04T11:22:54.305760
MEAN_MOTION    = 15.45321182
ECCENTRICITY   = .0006337
INCLINATION    = 97.5760
RA_OF_ASC_NODE = 235.1665
ARG_OF_PERICENTER = 306.7484
MEAN_ANOMALY   = 53.3182

EPHEMERIS_TYPE = 0
CLASSIFICATION_TYPE = U
NORAD_CAT_ID   = 10114
ELEMENT_SET_NO = 999
REV_AT_EPOCH   = 66752
BSTAR          = .41456E-3
MEAN_MOTION_DOT = .19703E-3
MEAN_MOTION_DDOT = 0

CCSDS_OMM_VERS = 2.0
CREATION_DATE  = 
ORIGINATOR     = 

OBJECT_NAME    = SEASAT 1
OBJECT_ID      = 1978-064A
CENTER_NAME    = EARTH
REF_FRAME      = TEME
TIME_SYSTEM    = UTC
MEAN_ELEMENT_THEORY = SGP/SGP4

EPOCH          = 2026-03-04T00:45:21.738240
MEAN_MOTION    = 14.46155301
ECCENTRICITY   = .0002188
INCLINATION    = 108.0122
RA_OF_ASC_NODE = 113.6266
ARG_OF_PERICENTER = 287.6768
MEAN_ANOMALY   = 72.4138

EPHEMERIS_TYPE = 0
CLASSIFICATION_TYPE = U
NORAD_CAT_ID   = 10967
ELEMENT_SET_NO = 999
REV_AT_EPOCH   = 50569
BSTAR          = .13283E-3
MEAN_MOTION_DOT = .338E-5
MEAN_MOTION_DDOT = 0

CCSDS_OMM_VERS = 2.0
CREATION_DATE  = 
ORIGINATOR     = 

OBJECT_NAME    = SL-14 R/B
OBJECT_ID      = 1979-011B
CENTER_NAME    = EARTH
REF_FRAME      = TEME
TIME_SYSTEM    = UTC
MEAN_ELEMENT_THEORY = SGP/SGP4

EPOCH          = 2026-03-04T11:35:45.036096
MEAN_MOTION    = 14.91901551
ECCENTRICITY   = .001758
INCLINATION    = 82.5214
RA_OF_ASC_NODE = 101.5126
ARG_OF_PERICENTER = 76.4853
MEAN_ANOMALY   = 283.8324

EPHEMERIS_TYPE = 0
CLASSIFICATION_TYPE = U
NORAD_CAT_ID   = 11267
ELEMENT_SET_NO = 999
REV_AT_EPOCH   = 52800
BSTAR          = .80208E-4
MEAN_MOTION_DOT = .839E-5
MEAN_MOTION_DDOT = 0

CCSDS_OMM_VERS = 2.0
CREATION_DATE  = 
ORIGINATOR     = 

OBJECT_NAME    = SL-8 R/B
OBJECT_ID      = 1979-089B
CENTER_NAME    = EARTH
REF_FRAME      = TEME
TIME_SYSTEM    = UTC
MEAN_ELEMENT_THEORY = SGP/SGP4

EPOCH          = 2026-03-04T11:22:49.742976
MEAN_MOTION    = 14.42346820
ECCENTRICITY   = .0017138
INCLINATION    = 74.0673
RA_OF_ASC_NODE = 100.6994
ARG_OF_PERICENTER = 273.9020
MEAN_ANOMALY   = 86.0177

EPHEMERIS_TYPE = 0
CLASSIFICATION_TYPE = U
NORAD_CAT_ID   = 11574
ELEMENT_SET_NO = 999
REV_AT_EPOCH   = 43535
BSTAR          = .12128E-3
MEAN_MOTION_DOT = .375E-5
MEAN_MOTION_DDOT = 0

CCSDS_OMM_VERS = 2.0
CREATION_DATE  = 
ORIGINATOR     = 

OBJECT_NAME    = SL-14 R/B
OBJECT_ID      = 1980-005B
CENTER_NAME    = EARTH
REF_FRAME      = TEME
TIME_SYSTEM    = UTC
MEAN_ELEMENT_THEORY = SGP/SGP4

EPOCH          = 2026-03-04T03:46:20.833248
MEAN_MOTION    = 14.90922933
ECCENTRICITY   = .0015695
INCLINATION    = 82.5155
RA_OF_ASC_NODE = 312.4838
ARG_OF_PERICENTER = 176.3105
MEAN_ANOMALY   = 183.8233

EPHEMERIS_TYPE = 0
CLASSIFICATION_TYPE = U
NORAD_CAT_ID   = 11672
ELEMENT_SET_NO = 999
REV_AT_EPOCH   = 47566
BSTAR          = .77037E-4
MEAN_MOTION_DOT = .787E-5
MEAN_MOTION_DDOT = 0

CCSDS_OMM_VERS = 2.0
CREATION_DATE  = 
ORIGINATOR     = 

OBJECT_NAME    = SL-8 R/B
OBJECT_ID      = 1981-003B
CENTER_NAME    = EARTH
REF_FRAME      = TEME
TIME_SYSTEM    = UTC
MEAN_ELEMENT_THEORY = SGP/SGP4

EPOCH          = 2026-03-04T02:32:43.771488
MEAN_MOTION    = 15.10715651
ECCENTRICITY   = .026267
INCLINATION    = 82.9389
RA_OF_ASC_NODE = 295.1872
ARG_OF_PERICENTER = 198.0326
MEAN_ANOMALY   = 161.1459

EPHEMERIS_TYPE = 0
CLASSIFICATION_TYPE = U
NORAD_CAT_ID   = 12139
ELEMENT_SET_NO = 999
REV_AT_EPOCH   = 31383
BSTAR          = .6185E-3
MEAN_MOTION_DOT = .23956E-3
MEAN_MOTION_DDOT = 0

CCSDS_OMM_VERS = 2.0
CREATION_DATE  = 
ORIGINATOR     = 

OBJECT_NAME    = SL-3 R/B
OBJECT_ID      = 1981-046B
CENTER_NAME    = EARTH
REF_FRAME      = TEME
TIME_SYSTEM    = UTC
MEAN_ELEMENT_THEORY = SGP/SGP4

EPOCH          = 2026-03-04T11:06:49.688640
MEAN_MOTION    = 15.41835710
ECCENTRICITY   = .0019995
INCLINATION    = 81.2306
RA_OF_ASC_NODE = 296.0205
ARG_OF_PERICENTER = 40.0389
MEAN_ANOMALY   = 320.2323

EPHEMERIS_TYPE = 0
CLASSIFICATION_TYPE = U
NORAD_CAT_ID   = 12465
ELEMENT_SET_NO = 999
REV_AT_EPOCH   = 43762
BSTAR          = .42988E-3
MEAN_MOTION_DOT = .184E-3
MEAN_MOTION_DDOT = 0

CCSDS_OMM_VERS = 2.0
CREATION_DATE  = 
ORIGINATOR     = 

OBJECT_NAME    = SL-3 R/B
OBJECT_ID      = 1981-103B
CENTER_NAME    = EARTH
REF_FRAME      = TEME
TIME_SYSTEM    = UTC
MEAN_ELEMENT_THEORY = SGP/SGP4

EPOCH          = 2026-03-04T12:15:10.430496
MEAN_MOTION    = 15.21300569
ECCENTRICITY   = .0012475
INCLINATION    = 81.1574
RA_OF_ASC_NODE = 219.5071
ARG_OF_PERICENTER = 305.5210
MEAN_ANOMALY   = 54.4857

EPHEMERIS_TYPE = 0
CLASSIFICATION_TYPE = U
NORAD_CAT_ID   = 12904
ELEMENT_SET_NO = 999
REV_AT_EPOCH   = 97244
BSTAR          = .41695E-3
MEAN_MOTION_DOT = .9371E-4
MEAN_MOTION_DDOT = 0

CCSDS_OMM_VERS = 2.0
CREATION_DATE  = 
ORIGINATOR     = 

OBJECT_NAME    = SL-3 R/B
OBJECT_ID      = 1982-013B
CENTER_NAME    = EARTH
REF_FRAME      = TEME
TIME_SYSTEM    = UTC
MEAN_ELEMENT_THEORY = SGP/SGP4

EPOCH          = 2026-03-04T10:55:15.335904
MEAN_MOTION    = 15.21952261
ECCENTRICITY   = .0022356
INCLINATION    = 81.1768
RA_OF_ASC_NODE = 166.9042
ARG_OF_PERICENTER = 195.0803
MEAN_ANOMALY   = 164.9766

EPHEMERIS_TYPE = 0
CLASSIFICATION_TYPE = U
NORAD_CAT_ID   = 13068
ELEMENT_SET_NO = 999
REV_AT_EPOCH   = 40355
BSTAR          = .31394E-3
MEAN_MOTION_DOT = .7231E-4
MEAN_MOTION_DDOT = 0

CCSDS_OMM_VERS = 2.0
CREATION_DATE  = 
ORIGINATOR     = 

OBJECT_NAME    = SL-3 R/B
OBJECT_ID      = 1982-039B
CENTER_NAME    = EARTH
REF_FRAME      = TEME
TIME_SYSTEM    = UTC
MEAN_ELEMENT_THEORY = SGP/SGP4

EPOCH          = 2026-03-04T11:43:11.948736
MEAN_MOTION    = 15.10045243
ECCENTRICITY   = .0029857
INCLINATION    = 81.1581
RA_OF_ASC_NODE = 221.9584
ARG_OF_PERICENTER = 341.4168
MEAN_ANOMALY   = 18.5964

EPHEMERIS_TYPE = 0
CLASSIFICATION_TYPE = U
NORAD_CAT_ID   = 13154
ELEMENT_SET_NO = 999
REV_AT_EPOCH   = 38085
BSTAR          = .25539E-3
MEAN_MOTION_DOT = .422E-4
MEAN_MOTION_DDOT = 0

