ATLAS CENTAUR R/B       
1 06155U 72065B   26063.15296046  .00001926  00000+0  26533-3 0  9996
2 06155  35.0028 338.2004 0034145 322.4837  37.3482 14.77669938840440
SL-8 R/B                
1 08459U 75112B   26063.35568897  .00000338  00000+0  11977-3 0  9991
2 08459  74.0617  28.7234 0014549 124.1794 236.0742 14.38200081631102
SL-3 R/B                
1 10114U 77057B   26063.47423965  .00019703  00000+0  41456-3 0  9992
2 10114  97.5760 235.1665 0006337 306.7484  53.3182 15.45321182667522
SEASAT 1                
1 10967U 78064A   26063.03150160  .00000338  00000+0  13283-3 0  9994
2 10967 108.0122 113.6266 0002188 287.6768  72.4138 14.46155301505697
SL-14 R/B               
1 11267U 79011B   26063.48316014  .00000839  00000+0  80208-4 0  9990
2 11267  82.5214 101.5126 0017580  76.4853 283.8324 14.91901551528002
SL-8 R/B                
1 11574U 79089B   26063.47418684  .00000375  00000+0  12128-3 0  9991
2 11574  74.0673 100.6994 0017138 273.9020  86.0177 14.42346820435352
SL-14 R/B               
1 11672U 80005B   26063.15718557  .00000787  00000+0  77037-4 0  9995
2 11672  82.5155 312.4838 0015695 176.3105 183.8233 14.90922933475661
SL-8 R/B                
1 12139U 81003B   26063.10606217  .00023956  00000+0  61850-3 0  9995
2 12139  82.9389 295.1872 0262670 198.0326 161.1459 15.10715651313830
SL-3 R/B                
1 12465U 81046B   26063.46307510  .00018400  00000+0  42988-3 0  9996
2 12465  81.2306 296.0205 0019995  40.0389 320.2323 15.41835710437623
SL-3 R/B                
1 12904U 81103B   26063.51053739  .00009371  00000+0  41695-3 0  9996
2 12904  81.1574 219.5071 0012475 305.5210  54.4857 15.21300569972445
SL-3 R/B                
1 13068U 82013B   26063.45503861  .00007231  00000+0  31394-3 0  9996
2 13068  81.1768 166.9042 0022356 195.0803 164.9766 15.21952261403553
SL-3 R/B                
1 13154U 82039B   26063.48833274  .00004220  00000+0  25539-3 0  9996
2 13154  81.1581 221.9584 0029857 341.4168  18.5964 15.10045243380851
